{
  "type": "FeatureCollection",
  "features": [
    {
      "type": "Feature",
      "properties": {
        "norad_id": 67124,
        "name": "STARLINK-36195",
        "group": "last-30-days",
        "lat": 42.72015989862018,
        "lon": -29.22013424879922,
        "alt_km": 325.9320634060732,
        "timestamp": "2025-12-26T08:37:53.295133+00:00",
        "meta_object_name": "STARLINK-36195",
        "meta_object_id": "2025-299Y",
        "meta_epoch": "2025-12-26T04:00:01.998720",
        "meta_mean_motion": 15.80399891,
        "meta_eccentricity": 0.0001796,
        "meta_inclination": 42.9976,
        "meta_ra_of_asc_node": 234.2932,
        "meta_arg_of_pericenter": 272.7388,
        "meta_mean_anomaly": 163.988,
        "meta_ephemeris_type": 0,
        "meta_classification_type": "U",
        "meta_norad_cat_id": 67124,
        "meta_element_set_no": 999,
        "meta_rev_at_epoch": 296,
        "meta_bstar": -0.010187,
        "meta_mean_motion_dot": -0.01756078,
        "meta_mean_motion_ddot": 0,
        "tle_line1": "1 67124U 25299Y   25360.16668980 -.01756078  00000+0 -10187-1 0  9990",
        "tle_line2": "2 67124  42.9976 234.2932 0001796 272.7388 163.9880 15.80399891  2969"
      },
      "geometry": {
        "type": "Point",
        "coordinates": [
          -29.22013424879922,
          42.72015989862018
        ]
      }
    },
    {
      "type": "Feature",
      "properties": {
        "norad_id": 67125,
        "name": "STARLINK-36219",
        "group": "last-30-days",
        "lat": 42.55132293533412,
        "lon": -27.033326397402664,
        "alt_km": 325.88684113696127,
        "timestamp": "2025-12-26T08:37:53.295143+00:00",
        "meta_object_name": "STARLINK-36219",
        "meta_object_id": "2025-299Z",
        "meta_epoch": "2025-12-26T04:00:01.998720",
        "meta_mean_motion": 15.80414387,
        "meta_eccentricity": 0.0001739,
        "meta_inclination": 42.9971,
        "meta_ra_of_asc_node": 234.2885,
        "meta_arg_of_pericenter": 276.1604,
        "meta_mean_anomaly": 162.1752,
        "meta_ephemeris_type": 0,
        "meta_classification_type": "U",
        "meta_norad_cat_id": 67125,
        "meta_element_set_no": 999,
        "meta_rev_at_epoch": 296,
        "meta_bstar": -0.010218,
        "meta_mean_motion_dot": -0.01761724,
        "meta_mean_motion_ddot": 0,
        "tle_line1": "1 67125U 25299Z   25360.16668980 -.01761724  00000+0 -10218-1 0  9990",
        "tle_line2": "2 67125  42.9971 234.2885 0001739 276.1604 162.1752 15.80414387  2965"
      },
      "geometry": {
        "type": "Point",
        "coordinates": [
          -27.033326397402664,
          42.55132293533412
        ]
      }
    },
    {
      "type": "Feature",
      "properties": {
        "norad_id": 67126,
        "name": "STARLINK-36223",
        "group": "last-30-days",
        "lat": 42.30637891453084,
        "lon": -24.531547140567454,
        "alt_km": 325.9190084765578,
        "timestamp": "2025-12-26T08:37:53.295153+00:00",
        "meta_object_name": "STARLINK-36223",
        "meta_object_id": "2025-299AA",
        "meta_epoch": "2025-12-26T04:00:01.998720",
        "meta_mean_motion": 15.80416242,
        "meta_eccentricity": 0.0001739,
        "meta_inclination": 42.9973,
        "meta_ra_of_asc_node": 234.2841,
        "meta_arg_of_pericenter": 274.5948,
        "meta_mean_anomaly": 165.6044,
        "meta_ephemeris_type": 0,
        "meta_classification_type": "U",
        "meta_norad_cat_id": 67126,
        "meta_element_set_no": 999,
        "meta_rev_at_epoch": 296,
        "meta_bstar": -0.010225,
        "meta_mean_motion_dot": -0.01762992,
        "meta_mean_motion_ddot": 0,
        "tle_line1": "1 67126U 25299AA  25360.16668980 -.01762992  00000+0 -10225-1 0  9997",
        "tle_line2": "2 67126  42.9973 234.2841 0001739 274.5948 165.6044 15.80416242  2967"
      },
      "geometry": {
        "type": "Point",
        "coordinates": [
          -24.531547140567454,
          42.30637891453084
        ]
      }
    },
    {
      "type": "Feature",
      "properties": {
        "norad_id": 67127,
        "name": "STARLINK-36164",
        "group": "last-30-days",
        "lat": 42.0318511489951,
        "lon": -22.240850205767387,
        "alt_km": 325.91119984125635,
        "timestamp": "2025-12-26T08:37:53.295163+00:00",
        "meta_object_name": "STARLINK-36164",
        "meta_object_id": "2025-299AB",
        "meta_epoch": "2025-12-26T04:00:01.998720",
        "meta_mean_motion": 15.80419936,
        "meta_eccentricity": 0.0001702,
        "meta_inclination": 42.9972,
        "meta_ra_of_asc_node": 234.2798,
        "meta_arg_of_pericenter": 273.9575,
        "meta_mean_anomaly": 167.9593,
        "meta_ephemeris_type": 0,
        "meta_classification_type": "U",
        "meta_norad_cat_id": 67127,
        "meta_element_set_no": 999,
        "meta_rev_at_epoch": 296,
        "meta_bstar": -0.010175,
        "meta_mean_motion_dot": -0.01755626,
        "meta_mean_motion_ddot": 0,
        "tle_line1": "1 67127U 25299AB  25360.16668980 -.01755626  00000+0 -10175-1 0  9998",
        "tle_line2": "2 67127  42.9972 234.2798 0001702 273.9575 167.9593 15.80419936  2964"
      },
      "geometry": {
        "type": "Point",
        "coordinates": [
          -22.240850205767387,
          42.0318511489951
        ]
      }
    },
    {
      "type": "Feature",
      "properties": {
        "norad_id": 67128,
        "name": "STARLINK-35685",
        "group": "last-30-days",
        "lat": 41.083258989856176,
        "lon": -16.256921607647914,
        "alt_km": 326.0970699652735,
        "timestamp": "2025-12-26T08:37:53.295173+00:00",
        "meta_object_name": "STARLINK-35685",
        "meta_object_id": "2025-299AC",
        "meta_epoch": "2025-12-26T04:00:01.998720",
        "meta_mean_motion": 15.80394455,
        "meta_eccentricity": 0.0001638,
        "meta_inclination": 42.9969,
        "meta_ra_of_asc_node": 234.2679,
        "meta_arg_of_pericenter": 281.2858,
        "meta_mean_anomaly": 165.2265,
        "meta_ephemeris_type": 0,
        "meta_classification_type": "U",
        "meta_norad_cat_id": 67128,
        "meta_element_set_no": 999,
        "meta_rev_at_epoch": 296,
        "meta_bstar": -0.010211,
        "meta_mean_motion_dot": -0.01759165,
        "meta_mean_motion_ddot": 0,
        "tle_line1": "1 67128U 25299AC  25360.16668980 -.01759165  00000+0 -10211-1 0  9992",
        "tle_line2": "2 67128  42.9969 234.2679 0001638 281.2858 165.2265 15.80394455  2968"
      },
      "geometry": {
        "type": "Point",
        "coordinates": [
          -16.256921607647914,
          41.083258989856176
        ]
      }
    },
    {
      "type": "Feature",
      "properties": {
        "norad_id": 67129,
        "name": "STARLINK-36214",
        "group": "last-30-days",
        "lat": 41.665711356528895,
        "lon": -19.66770915148344,
        "alt_km": 326.0187939803818,
        "timestamp": "2025-12-26T08:37:53.295183+00:00",
        "meta_object_name": "STARLINK-36214",
        "meta_object_id": "2025-299AD",
        "meta_epoch": "2025-12-26T04:00:01.998720",
        "meta_mean_motion": 15.80418842,
        "meta_eccentricity": 0.000177,
        "meta_inclination": 42.9973,
        "meta_ra_of_asc_node": 234.2746,
        "meta_arg_of_pericenter": 275.474,
        "meta_mean_anomaly": 168.3965,
        "meta_ephemeris_type": 0,
        "meta_classification_type": "U",
        "meta_norad_cat_id": 67129,
        "meta_element_set_no": 999,
        "meta_rev_at_epoch": 296,
        "meta_bstar": -0.010187,
        "meta_mean_motion_dot": -0.01757383,
        "meta_mean_motion_ddot": 0,
        "tle_line1": "1 67129U 25299AD  25360.16668980 -.01757383  00000+0 -10187-1 0  9995",
        "tle_line2": "2 67129  42.9973 234.2746 0001770 275.4740 168.3965 15.80418842  2969"
      },
      "geometry": {
        "type": "Point",
        "coordinates": [
          -19.66770915148344,
          41.665711356528895
        ]
      }
    },
    {
      "type": "Feature",
      "properties": {
        "norad_id": 67130,
        "name": "STARLINK-36194",
        "group": "last-30-days",
        "lat": 39.89642252525367,
        "lon": -10.7232365322455,
        "alt_km": 326.36836179667444,
        "timestamp": "2025-12-26T08:37:53.295193+00:00",
        "meta_object_name": "STARLINK-36194",
        "meta_object_id": "2025-299AE",
        "meta_epoch": "2025-12-26T04:00:01.998720",
        "meta_mean_motion": 15.80304773,
        "meta_eccentricity": 0.0001416,
        "meta_inclination": 42.9971,
        "meta_ra_of_asc_node": 234.2583,
        "meta_arg_of_pericenter": 276.9617,
        "meta_mean_anomaly": 173.9889,
        "meta_ephemeris_type": 0,
        "meta_classification_type": "U",
        "meta_norad_cat_id": 67130,
        "meta_element_set_no": 999,
        "meta_rev_at_epoch": 296,
        "meta_bstar": -0.010268,
        "meta_mean_motion_dot": -0.01761172,
        "meta_mean_motion_ddot": 0,
        "tle_line1": "1 67130U 25299AE  25360.16668980 -.01761172  00000+0 -10268-1 0  9998",
        "tle_line2": "2 67130  42.9971 234.2583 0001416 276.9617 173.9889 15.80304773  2968"
      },
      "geometry": {
        "type": "Point",
        "coordinates": [
          -10.7232365322455,
          39.89642252525367
        ]
      }
    }
  ]
}